INTELSAT 902 (IS-902)   
1 26900U 01039A   26198.18794513 -.00000296  00000+0  00000+0 0  9990
2 26900   6.1897  71.4135 0004197  43.9774 197.1804  1.00271924 90999
INTELSAT 904 (IS-904)   
1 27380U 02007A   26198.24419874 -.00000238  00000+0  00000+0 0  9996
2 27380   6.9930  68.8202 0005394  26.6762 255.9994  1.00270479 52061
DIRECTV 5 (TEMPO 1)     
1 27426U 02023A   26198.17484009 -.00000069  00000+0  00000+0 0  9991
2 27426   4.9526  74.9351 0003174  48.3494 124.5373  1.00271648 88421
INTELSAT 905 (IS-905)   
1 27438U 02027A   26198.23378149  .00000081  00000+0  00000+0 0  9995
2 27438   6.8270  69.4341 0003504  48.5721 123.9956  1.00272011 51662
GALAXY 3C (G-3C)        
1 27445U 02030A   26198.24910807 -.00000164  00000+0  00000+0 0  9994
2 27445   3.8098  77.5866 0001647  32.6312 179.6908  1.00270813 46794
INTELSAT 906 (IS-906)   
1 27513U 02041A   26198.19419797  .00000000  00000+0  00000+0 0  9996
2 27513   5.8757  72.5489 0003738  27.5280 329.0130  1.00273554 87327
GALAXY 13 (HORIZONS-1)  
1 27954U 03044A   26198.16695340  .00000122  00000+0  00000+0 0  9991
2 27954   1.4939  83.4774 0002120  33.4366  88.1608  1.00272167 46870
INTELSAT 10-02          
1 28358U 04022A   26198.26774150 -.00000021  00000+0  00000+0 0  9994
2 28358   0.0565 255.2258 0000240 348.7761 146.4687  1.00271273 80855
DIRECTV 8               
1 28659U 05019A   26198.22266925  .00000000  00000+0  00000+0 0  9993
2 28659   0.0216  64.5556 0003055  56.4556 135.1471  1.00270369 77370
GALAXY 28 (G-28)        
1 28702U 05022A   26198.24419874 -.00000212  00000+0  00000+0 0  9997
2 28702   3.3732  78.5611 0002507  30.8593 246.4584  1.00271522 52278
GALAXY 16 (G-16)        
1 29236U 06023A   26198.24832807 -.00000137  00000+0  00000+0 0  9993
2 29236   0.0249 153.5244 0002577 320.3776 171.5513  1.00271551 73276
DIRECTV 9S              
1 29494U 06043A   26198.24789473 -.00000124  00000+0  00000+0 0  9997
2 29494   2.4966  80.5404 0004989  32.1985 170.3674  1.00271445 51688
GALAXY 17 (G-17)        
1 31307U 07016B   26198.25110141 -.00000217  00000+0  00000+0 0  9998
2 31307   3.0458  79.5207 0003639  35.7094 185.2126  1.00271450 70108
INTELSAT 11 (IS-11)     
1 32253U 07044B   26198.23308589 -.00000207  00000+0  00000+0 0  9992
2 32253   3.6418  78.3042 0004290  99.9792 194.3333  0.99052742 68742
HORIZONS-2              
1 32388U 07063B   26198.25326809 -.00000265  00000+0  00000+0 0  9993
2 32388   2.6778  80.2576 0003543  17.2224 214.9541  1.00273220 68116
DIRECTV 11              
1 32729U 08013A   26198.24824140 -.00000135  00000+0  00000+0 0  9994
2 32729   0.0271 223.3962 0000209 328.0073  93.8399  1.00269410 45896
GALAXY 18 (G-18)        
1 32951U 08024A   26198.24350977  .00000015  00000+0  00000+0 0  9991
2 32951   0.0158  77.0683 0002862  38.0651 144.5720  1.00271065 46159
GALAXY 19 (G-19)        
1 33376U 08045A   26198.24867473 -.00000149  00000+0  00000+0 0  9999
2 33376   0.0511 243.3541 0002425 242.8842 161.3525  1.00270952 65208
FM-5                    
1 35493U 09034A   26197.82301248 -.00000210  00000+0  00000+0 0  9995
2 35493   0.0370 243.7641 0000713 111.2500 149.7458  1.00271164 46947
INTELSAT 14 (IS-14)     
1 36097U 09064A   26198.25898812 -.00000284  00000+0  00000+0 0  9996
2 36097   0.0164   3.0095 0002322 115.2265 225.0669  1.00272579 60904
INTELSAT 15 (IS-15)     
1 36106U 09067A   26198.14220321  .00000000  00000+0  00000+0 0  9997
2 36106   0.0199  45.2299 0002235  70.9354 315.1458  1.00270438 41522
DIRECTV 12              
1 36131U 09075A   26198.24754807 -.00000113  00000+0  00000+0 0  9992
2 36131   0.0369 201.8272 0000276  18.5572  61.0694  1.00271908 46856
INTELSAT 16 (IS-16)     
1 36397U 10006A   26198.25283476 -.00000255  00000+0  00000+0 0  9999
2 36397   0.0153  57.9722 0002322  77.9811 173.9255  1.00271985 59956
XM-5                    
1 37185U 10053A   26198.22266925 -.00000033  00000+0  00000+0 0  9998
2 37185   0.0596 263.9844 0001504 322.2337  33.7815  1.00273095 57785
INTELSAT 17 (IS-17)     
1 37238U 10065B   26198.20808690 -.00000012  00000+0  00000+0 0  9996
2 37238   0.0028  80.2177 0002554  45.9612 309.7520  1.00272173 53549
INTELSAT 28 (IS-28)     
1 37392U 11016A   26198.24419874 -.00000236  00000+0  00000+0 0  9998
2 37392   1.8821  82.2572 0003763  40.8133 228.1950  1.00271955 53588
INTELSAT 18 (IS-18)     
1 37834U 11056A   26198.16100995  .00000043  00000+0  00000+0 0  9990
2 37834   0.0301 236.9189 0001801 251.3969  44.6195  1.00272226 54116
INTELSAT 22 (IS-22)     
1 38098U 12011A   26198.20808690 -.00000069  00000+0  00000+0 0  9996
2 38098   0.0192  49.3293 0001838  77.5338 315.1741  1.00271915  7482
INTELSAT 19 (IS-19)     
1 38356U 12030A   26198.22952703 -.00000067  00000+0  00000+0 0  9999
2 38356   0.0182  40.8824 0002863  74.9653  67.8144  1.00271696 50756
INTELSAT 20 (IS-20)     
1 38740U 12043A   26198.16433529 -.00000034  00000+0  00000+0 0  9997
2 38740   0.0112  62.7729 0001258 118.5181 241.3595  1.00270572 51045
INTELSAT 21 (IS-21)     
1 38749U 12045A   26198.25647477 -.00000295  00000+0  00000+0 0  9996
2 38749   0.0482 245.7813 0001623 241.5994 202.0269  1.00272374 50825
