OBJECT_NAME,OBJECT_ID,EPOCH,MEAN_MOTION,ECCENTRICITY,INCLINATION,RA_OF_ASC_NODE,ARG_OF_PERICENTER,MEAN_ANOMALY,EPHEMERIS_TYPE,CLASSIFICATION_TYPE,NORAD_CAT_ID,ELEMENT_SET_NO,REV_AT_EPOCH,BSTAR,MEAN_MOTION_DOT,MEAN_MOTION_DDOT
INTELSAT 902 (IS-902),2001-039A,2026-07-17T04:30:38.459232,1.00271924,.00041978,6.1897,71.4135,43.9774,197.1804,0,U,26900,999,9099,0,-.296E-5,0
INTELSAT 904 (IS-904),2002-007A,2026-07-17T05:51:38.771136,1.00270479,.00053943,6.9930,68.8202,26.6762,255.9994,0,U,27380,999,5206,0,-.238E-5,0
DIRECTV 5 (TEMPO 1),2002-023A,2026-07-17T04:11:46.183776,1.00271648,.00031743,4.9526,74.9351,48.3494,124.5373,0,U,27426,999,8842,0,-.69E-6,0
INTELSAT 905 (IS-905),2002-027A,2026-07-17T05:36:38.720736,1.00272011,.00035046,6.8270,69.4341,48.5721,123.9956,0,U,27438,999,5166,0,.81E-6,0
GALAXY 3C (G-3C),2002-030A,2026-07-17T05:58:42.937248,1.00270813,.00016478,3.8098,77.5866,32.6312,179.6908,0,U,27445,999,4679,0,-.164E-5,0
INTELSAT 906 (IS-906),2002-041A,2026-07-17T04:39:38.704608,1.00273554,.00037382,5.8757,72.5489,27.5280,329.0130,0,U,27513,999,8732,0,0,0
GALAXY 13 (HORIZONS-1),2003-044A,2026-07-17T04:00:24.773760,1.00272167,.00021202,1.4939,83.4774,33.4366,88.1608,0,U,27954,999,4687,0,.122E-5,0
INTELSAT 10-02,2004-022A,2026-07-17T06:25:32.865600,1.00271273,.00002402,0.0565,255.2258,348.7761,146.4687,0,U,28358,999,8085,0,-.21E-6,0
DIRECTV 8,2005-019A,2026-07-17T05:20:38.623200,1.00270369,.00030555,0.0216,64.5556,56.4556,135.1471,0,U,28659,999,7737,0,0,0
GALAXY 28 (G-28),2005-022A,2026-07-17T05:51:38.771136,1.00271522,.00025072,3.3732,78.5611,30.8593,246.4584,0,U,28702,999,5227,0,-.212E-5,0
GALAXY 16 (G-16),2006-023A,2026-07-17T05:57:35.545248,1.00271551,.00025772,0.0249,153.5244,320.3776,171.5513,0,U,29236,999,7327,0,-.137E-5,0
DIRECTV 9S,2006-043A,2026-07-17T05:56:58.104672,1.00271445,.00049896,2.4966,80.5404,32.1985,170.3674,0,U,29494,999,5168,0,-.124E-5,0
GALAXY 17 (G-17),2007-016B,2026-07-17T06:01:35.161824,1.00271450,.00036392,3.0458,79.5207,35.7094,185.2126,0,U,31307,999,7010,0,-.217E-5,0
INTELSAT 11 (IS-11),2007-044B,2026-07-17T05:35:38.620896,0.99052742,.00042906,3.6418,78.3042,99.9792,194.3333,0,U,32253,999,6874,0,-.207E-5,0
HORIZONS-2,2007-063B,2026-07-17T06:04:42.362976,1.00273220,.00035434,2.6778,80.2576,17.2224,214.9541,0,U,32388,999,6811,0,-.265E-5,0
DIRECTV 11,2008-013A,2026-07-17T05:57:28.056960,1.00269410,.00002097,0.0271,223.3962,328.0073,93.8399,0,U,32729,999,4589,0,-.135E-5,0
GALAXY 18 (G-18),2008-024A,2026-07-17T05:50:39.244128,1.00271065,.00028626,0.0158,77.0683,38.0651,144.5720,0,U,32951,999,4615,0,.15E-6,0
GALAXY 19 (G-19),2008-045A,2026-07-17T05:58:05.496672,1.00270952,.00024252,0.0511,243.3541,242.8842,161.3525,0,U,33376,999,6520,0,-.149E-5,0
FM-5,2009-034A,2026-07-16T19:45:08.278272,1.00271164,.00007132,0.0370,243.7641,111.2500,149.7458,0,U,35493,999,4694,0,-.21E-5,0
INTELSAT 14 (IS-14),2009-064A,2026-07-17T06:12:56.573568,1.00272579,.00023226,0.0164,3.0095,115.2265,225.0669,0,U,36097,999,6090,0,-.284E-5,0
INTELSAT 15 (IS-15),2009-067A,2026-07-17T03:24:46.357344,1.00270438,.00022359,0.0199,45.2299,70.9354,315.1458,0,U,36106,999,4152,0,0,0
DIRECTV 12,2009-075A,2026-07-17T05:56:28.153248,1.00271908,.00002765,0.0369,201.8272,18.5572,61.0694,0,U,36131,999,4685,0,-.113E-5,0
INTELSAT 16 (IS-16),2010-006A,2026-07-17T06:04:04.923264,1.00271985,.00023228,0.0153,57.9722,77.9811,173.9255,0,U,36397,999,5995,0,-.255E-5,0
XM-5,2010-053A,2026-07-17T05:20:38.623200,1.00273095,.00015049,0.0596,263.9844,322.2337,33.7815,0,U,37185,999,5778,0,-.33E-6,0
INTELSAT 17 (IS-17),2010-065B,2026-07-17T04:59:38.708160,1.00272173,.00025541,0.0028,80.2177,45.9612,309.7520,0,U,37238,999,5354,0,-.12E-6,0
INTELSAT 28 (IS-28),2011-016A,2026-07-17T05:51:38.771136,1.00271955,.00037632,1.8821,82.2572,40.8133,228.1950,0,U,37392,999,5358,0,-.236E-5,0
INTELSAT 18 (IS-18),2011-056A,2026-07-17T03:51:51.259680,1.00272226,.00018017,0.0301,236.9189,251.3969,44.6195,0,U,37834,999,5411,0,.43E-6,0
INTELSAT 22 (IS-22),2012-011A,2026-07-17T04:59:38.708160,1.00271915,.00018383,0.0192,49.3293,77.5338,315.1741,0,U,38098,999,748,0,-.69E-6,0
INTELSAT 19 (IS-19),2012-030A,2026-07-17T05:30:31.135392,1.00271696,.00028636,0.0182,40.8824,74.9653,67.8144,0,U,38356,999,5075,0,-.67E-6,0
INTELSAT 20 (IS-20),2012-043A,2026-07-17T03:56:38.569056,1.00270572,.0001258,0.0112,62.7729,118.5181,241.3595,0,U,38740,999,5104,0,-.34E-6,0
INTELSAT 21 (IS-21),2012-045A,2026-07-17T06:09:19.420128,1.00272374,.0001623,0.0482,245.7813,241.5994,202.0269,0,U,38749,999,5082,0,-.295E-5,0
